[{"OBJECT_NAME":"ONEWEB-0364","OBJECT_ID":"2021-090M","EPOCH":"2026-03-19T03:03:51.316128","MEAN_MOTION":13.20770798,"ECCENTRICITY":0.00016772,"INCLINATION":87.9147,"RA_OF_ASC_NODE":292.4354,"ARG_OF_PERICENTER":85.8585,"MEAN_ANOMALY":274.274,"EPHEMERIS_TYPE":0,"CLASSIFICATION_TYPE":"U","NORAD_CAT_ID":49290,"ELEMENT_SET_NO":999,"REV_AT_EPOCH":21955,"BSTAR":1.0526995e-5,"MEAN_MOTION_DOT":1.7e-7,"MEAN_MOTION_DDOT":0},{"OBJECT_NAME":"ONEWEB-0365","OBJECT_ID":"2021-090N","EPOCH":"2026-03-19T04:36:43.710912","MEAN_MOTION":13.19725302,"ECCENTRICITY":0.00018058,"INCLINATION":87.9226,"RA_OF_ASC_NODE":322.8958,"ARG_OF_PERICENTER":83.2608,"MEAN_ANOMALY":276.873,"EPHEMERIS_TYPE":0,"CLASSIFICATION_TYPE":"U","NORAD_CAT_ID":49291,"ELEMENT_SET_NO":999,"REV_AT_EPOCH":21455,"BSTAR":9.4608348e-5,"MEAN_MOTION_DOT":5.1e-7,"MEAN_MOTION_DDOT":0},{"OBJECT_NAME":"ONEWEB-0366","OBJECT_ID":"2021-090P","EPOCH":"2026-03-19T03:50:40.737408","MEAN_MOTION":13.14503519,"ECCENTRICITY":0.00016303,"INCLINATION":87.8959,"RA_OF_ASC_NODE":307.6796,"ARG_OF_PERICENTER":82.3606,"MEAN_ANOMALY":277.7708,"EPHEMERIS_TYPE":0,"CLASSIFICATION_TYPE":"U","NORAD_CAT_ID":49292,"ELEMENT_SET_NO":999,"REV_AT_EPOCH":21573,"BSTAR":0.0007712213,"MEAN_MOTION_DOT":2.99e-6,"MEAN_MOTION_DDOT":0},{"OBJECT_NAME":"ONEWEB-0367","OBJECT_ID":"2021-090Q","EPOCH":"2026-03-19T02:07:02.526816","MEAN_MOTION":13.20771042,"ECCENTRICITY":0.00019077,"INCLINATION":87.9163,"RA_OF_ASC_NODE":292.4295,"ARG_OF_PERICENTER":86.7171,"MEAN_ANOMALY":273.4181,"EPHEMERIS_TYPE":0,"CLASSIFICATION_TYPE":"U","NORAD_CAT_ID":49293,"ELEMENT_SET_NO":999,"REV_AT_EPOCH":21793,"BSTAR":0.00011834852,"MEAN_MOTION_DOT":6.1e-7,"MEAN_MOTION_DDOT":0},{"OBJECT_NAME":"ONEWEB-0368","OBJECT_ID":"2021-090R","EPOCH":"2026-03-19T06:55:40.582560","MEAN_MOTION":13.20770879,"ECCENTRICITY":0.00015392,"INCLINATION":87.9148,"RA_OF_ASC_NODE":292.4105,"ARG_OF_PERICENTER":115.4539,"MEAN_ANOMALY":244.6754,"EPHEMERIS_TYPE":0,"CLASSIFICATION_TYPE":"U","NORAD_CAT_ID":49294,"ELEMENT_SET_NO":999,"REV_AT_EPOCH":21911,"BSTAR":0.00014236075,"MEAN_MOTION_DOT":7.1e-7,"MEAN_MOTION_DDOT":0},{"OBJECT_NAME":"ONEWEB-0369","OBJECT_ID":"2021-090S","EPOCH":"2026-03-19T04:29:54.559392","MEAN_MOTION":13.19725163,"ECCENTRICITY":0.00017298,"INCLINATION":87.9212,"RA_OF_ASC_NODE":322.9138,"ARG_OF_PERICENTER":84.5936,"MEAN_ANOMALY":275.5394,"EPHEMERIS_TYPE":0,"CLASSIFICATION_TYPE":"U","NORAD_CAT_ID":49295,"ELEMENT_SET_NO":999,"REV_AT_EPOCH":21454,"BSTAR":0.0002375018,"MEAN_MOTION_DOT":1.08e-6,"MEAN_MOTION_DDOT":0},{"OBJECT_NAME":"ONEWEB-0370","OBJECT_ID":"2021-090T","EPOCH":"2026-03-19T02:20:41.610048","MEAN_MOTION":13.2077097,"ECCENTRICITY":0.00018478,"INCLINATION":87.9157,"RA_OF_ASC_NODE":292.429,"ARG_OF_PERICENTER":79.8492,"MEAN_ANOMALY":280.285,"EPHEMERIS_TYPE":0,"CLASSIFICATION_TYPE":"U","NORAD_CAT_ID":49296,"ELEMENT_SET_NO":999,"REV_AT_EPOCH":21797,"BSTAR":0.0003274685,"MEAN_MOTION_DOT":1.46e-6,"MEAN_MOTION_DDOT":0},{"OBJECT_NAME":"ONEWEB-0371","OBJECT_ID":"2021-090U","EPOCH":"2026-03-19T04:41:16.886112","MEAN_MOTION":13.1972539,"ECCENTRICITY":0.00018201,"INCLINATION":87.9217,"RA_OF_ASC_NODE":322.9014,"ARG_OF_PERICENTER":81.1765,"MEAN_ANOMALY":278.9574,"EPHEMERIS_TYPE":0,"CLASSIFICATION_TYPE":"U","NORAD_CAT_ID":49297,"ELEMENT_SET_NO":999,"REV_AT_EPOCH":21458,"BSTAR":0.00012591111,"MEAN_MOTION_DOT":6.3e-7,"MEAN_MOTION_DDOT":0},{"OBJECT_NAME":"ONEWEB-0372","OBJECT_ID":"2021-090V","EPOCH":"2026-03-19T02:04:35.396256","MEAN_MOTION":13.2077135,"ECCENTRICITY":0.00017427,"INCLINATION":87.916,"RA_OF_ASC_NODE":292.4315,"ARG_OF_PERICENTER":90.0072,"MEAN_ANOMALY":270.1261,"EPHEMERIS_TYPE":0,"CLASSIFICATION_TYPE":"U","NORAD_CAT_ID":49298,"ELEMENT_SET_NO":999,"REV_AT_EPOCH":21794,"BSTAR":0.00030927125,"MEAN_MOTION_DOT":1.39e-6,"MEAN_MOTION_DDOT":0},{"OBJECT_NAME":"ONEWEB-0373","OBJECT_ID":"2021-090W","EPOCH":"2026-03-19T02:43:24.483648","MEAN_MOTION":13.20771497,"ECCENTRICITY":0.00016013,"INCLINATION":87.9151,"RA_OF_ASC_NODE":292.4309,"ARG_OF_PERICENTER":84.4804,"MEAN_ANOMALY":275.6512,"EPHEMERIS_TYPE":0,"CLASSIFICATION_TYPE":"U","NORAD_CAT_ID":49299,"ELEMENT_SET_NO":999,"REV_AT_EPOCH":21913,"BSTAR":-3.8412898e-5,"MEAN_MOTION_DOT":-3.0e-8,"MEAN_MOTION_DDOT":0},{"OBJECT_NAME":"ONEWEB-0374","OBJECT_ID":"2021-090X","EPOCH":"2026-03-19T03:32:22.935552","MEAN_MOTION":13.14495003,"ECCENTRICITY":0.00010929,"INCLINATION":87.8969,"RA_OF_ASC_NODE":307.6666,"ARG_OF_PERICENTER":80.997,"MEAN_ANOMALY":279.1283,"EPHEMERIS_TYPE":0,"CLASSIFICATION_TYPE":"U","NORAD_CAT_ID":49300,"ELEMENT_SET_NO":999,"REV_AT_EPOCH":21573,"BSTAR":0.0024762386,"MEAN_MOTION_DOT":9.31e-6,"MEAN_MOTION_DDOT":0},{"OBJECT_NAME":"ONEWEB-0375","OBJECT_ID":"2021-090Y","EPOCH":"2026-03-19T02:25:14.369664","MEAN_MOTION":13.20771412,"ECCENTRICITY":0.00011737,"INCLINATION":87.9159,"RA_OF_ASC_NODE":292.4217,"ARG_OF_PERICENTER":78.286,"MEAN_ANOMALY":281.8405,"EPHEMERIS_TYPE":0,"CLASSIFICATION_TYPE":"U","NORAD_CAT_ID":49301,"ELEMENT_SET_NO":999,"REV_AT_EPOCH":21863,"BSTAR":0.00023745097,"MEAN_MOTION_DOT":1.1e-6,"MEAN_MOTION_DDOT":0},{"OBJECT_NAME":"ONEWEB-0376","OBJECT_ID":"2021-090Z","EPOCH":"2026-03-19T04:38:59.699328","MEAN_MOTION":13.19725627,"ECCENTRICITY":0.00018451,"INCLINATION":87.9225,"RA_OF_ASC_NODE":322.8956,"ARG_OF_PERICENTER":87.4823,"MEAN_ANOMALY":272.6521,"EPHEMERIS_TYPE":0,"CLASSIFICATION_TYPE":"U","NORAD_CAT_ID":49302,"ELEMENT_SET_NO":999,"REV_AT_EPOCH":21458,"BSTAR":3.351395e-5,"MEAN_MOTION_DOT":2.6e-7,"MEAN_MOTION_DDOT":0},{"OBJECT_NAME":"ONEWEB-0377","OBJECT_ID":"2021-090AA","EPOCH":"2026-03-19T02:04:58.735488","MEAN_MOTION":13.20770653,"ECCENTRICITY":0.00016773,"INCLINATION":87.9157,"RA_OF_ASC_NODE":292.4261,"ARG_OF_PERICENTER":79.5301,"MEAN_ANOMALY":280.6022,"EPHEMERIS_TYPE":0,"CLASSIFICATION_TYPE":"U","NORAD_CAT_ID":49303,"ELEMENT_SET_NO":999,"REV_AT_EPOCH":21862,"BSTAR":0.00022862577,"MEAN_MOTION_DOT":1.06e-6,"MEAN_MOTION_DDOT":0},{"OBJECT_NAME":"ONEWEB-0378","OBJECT_ID":"2021-090AB","EPOCH":"2026-03-19T02:36:47.091168","MEAN_MOTION":13.20770665,"ECCENTRICITY":0.00015395,"INCLINATION":87.9151,"RA_OF_ASC_NODE":292.4318,"ARG_OF_PERICENTER":88.1823,"MEAN_ANOMALY":271.9487,"EPHEMERIS_TYPE":0,"CLASSIFICATION_TYPE":"U","NORAD_CAT_ID":49304,"ELEMENT_SET_NO":999,"REV_AT_EPOCH":21789,"BSTAR":0.00012051864,"MEAN_MOTION_DOT":6.2e-7,"MEAN_MOTION_DDOT":0},{"OBJECT_NAME":"ONEWEB-0379","OBJECT_ID":"2021-090AC","EPOCH":"2026-03-19T01:35:57.520608","MEAN_MOTION":13.14505096,"ECCENTRICITY":0.00015354,"INCLINATION":87.8973,"RA_OF_ASC_NODE":307.6929,"ARG_OF_PERICENTER":84.6142,"MEAN_ANOMALY":275.5163,"EPHEMERIS_TYPE":0,"CLASSIFICATION_TYPE":"U","NORAD_CAT_ID":49305,"ELEMENT_SET_NO":999,"REV_AT_EPOCH":21572,"BSTAR":0.00020354126,"MEAN_MOTION_DOT":8.8e-7,"MEAN_MOTION_DDOT":0},{"OBJECT_NAME":"ONEWEB-0380","OBJECT_ID":"2021-090AD","EPOCH":"2026-03-19T04:34:27.026112","MEAN_MOTION":13.1972456,"ECCENTRICITY":0.00016421,"INCLINATION":87.9217,"RA_OF_ASC_NODE":322.9108,"ARG_OF_PERICENTER":73.5601,"MEAN_ANOMALY":286.5712,"EPHEMERIS_TYPE":0,"CLASSIFICATION_TYPE":"U","NORAD_CAT_ID":49306,"ELEMENT_SET_NO":999,"REV_AT_EPOCH":21455,"BSTAR":-0.00012593232,"MEAN_MOTION_DOT":-3.7e-7,"MEAN_MOTION_DDOT":0}]
