ONEWEB-0364             
1 49290U 21090M   26078.12767727  .00000017  00000+0  10527-4 0  9994
2 49290  87.9147 292.4354 0001677  85.8585 274.2740 13.20770798219553
ONEWEB-0365             
1 49291U 21090N   26078.19217258  .00000051  00000+0  94608-4 0  9991
2 49291  87.9226 322.8958 0001805  83.2608 276.8730 13.19725302214552
ONEWEB-0366             
1 49292U 21090P   26078.16019372  .00000299  00000+0  77122-3 0  9991
2 49292  87.8959 307.6796 0001630  82.3606 277.7708 13.14503519215735
ONEWEB-0367             
1 49293U 21090Q   26078.08822369  .00000061  00000+0  11835-3 0  9997
2 49293  87.9163 292.4295 0001907  86.7171 273.4181 13.20771042217938
ONEWEB-0368             
1 49294U 21090R   26078.28866415  .00000071  00000+0  14236-3 0  9999
2 49294  87.9148 292.4105 0001539 115.4539 244.6754 13.20770879219116
ONEWEB-0369             
1 49295U 21090S   26078.18743703  .00000108  00000+0  23750-3 0  9995
2 49295  87.9212 322.9138 0001729  84.5936 275.5394 13.19725163214541
ONEWEB-0370             
1 49296U 21090T   26078.09770382  .00000146  00000+0  32747-3 0  9997
2 49296  87.9157 292.4290 0001847  79.8492 280.2850 13.20770970217973
ONEWEB-0371             
1 49297U 21090U   26078.19533433  .00000063  00000+0  12591-3 0  9996
2 49297  87.9217 322.9014 0001820  81.1765 278.9574 13.19725390214589
ONEWEB-0372             
1 49298U 21090V   26078.08652079  .00000139  00000+0  30927-3 0  9990
2 49298  87.9160 292.4315 0001742  90.0072 270.1261 13.20771350217944
ONEWEB-0373             
1 49299U 21090W   26078.11347782 -.00000003  00000+0 -38413-4 0  9998
2 49299  87.9151 292.4309 0001601  84.4804 275.6512 13.20771497219136
ONEWEB-0374             
1 49300U 21090X   26078.14748768  .00000931  00000+0  24762-2 0  9991
2 49300  87.8969 307.6666 0001092  80.9970 279.1283 13.14495003215734
ONEWEB-0375             
1 49301U 21090Y   26078.10086076  .00000110  00000+0  23745-3 0  9995
2 49301  87.9159 292.4217 0001173  78.2860 281.8405 13.20771412218634
ONEWEB-0376             
1 49302U 21090Z   26078.19374652  .00000026  00000+0  33514-4 0  9997
2 49302  87.9225 322.8956 0001845  87.4823 272.6521 13.19725627214586
ONEWEB-0377             
1 49303U 21090AA  26078.08679092  .00000106  00000+0  22863-3 0  9995
2 49303  87.9157 292.4261 0001677  79.5301 280.6022 13.20770653218623
ONEWEB-0378             
1 49304U 21090AB  26078.10887837  .00000062  00000+0  12052-3 0  9997
2 49304  87.9151 292.4318 0001539  88.1823 271.9487 13.20770665217892
ONEWEB-0379             
1 49305U 21090AC  26078.06663797  .00000088  00000+0  20354-3 0  9992
2 49305  87.8973 307.6929 0001535  84.6142 275.5163 13.14505096215720
ONEWEB-0380             
1 49306U 21090AD  26078.19059058 -.00000037  00000+0 -12593-3 0  9998
2 49306  87.9217 322.9108 0001642  73.5601 286.5712 13.19724560214554
